{"fetched_at":"2026-07-14T06:34:27.310Z","source":"https://celestrak.org/NORAD/elements/gp.php?GROUP=spire&FORMAT=JSON","constellation":"spire","records":[{"OBJECT_NAME":"LEMUR-2-LEIA-PHILIP","OBJECT_ID":"2025-052AN","EPOCH":"2026-07-13T15:59:45.977568","CLASSIFICATION_TYPE":"U","MEAN_MOTION":14.97390448,"ECCENTRICITY":0.0005085,"INCLINATION":97.681,"RA_OF_ASC_NODE":86.1686,"ARG_OF_PERICENTER":122.7707,"MEAN_ANOMALY":237.4005,"EPHEMERIS_TYPE":0,"NORAD_CAT_ID":63246,"ELEMENT_SET_NO":999,"REV_AT_EPOCH":7263,"BSTAR":0.000041192,"MEAN_MOTION_DOT":0.00000421,"MEAN_MOTION_DDOT":0},{"OBJECT_NAME":"LEMUR-2-LIA-MARTIN","OBJECT_ID":"2025-052AQ","EPOCH":"2026-07-13T15:52:51.573792","CLASSIFICATION_TYPE":"U","MEAN_MOTION":14.98023427,"ECCENTRICITY":0.0005392,"INCLINATION":97.6874,"RA_OF_ASC_NODE":86.68,"ARG_OF_PERICENTER":93.6022,"MEAN_ANOMALY":266.5818,"EPHEMERIS_TYPE":0,"NORAD_CAT_ID":63248,"ELEMENT_SET_NO":999,"REV_AT_EPOCH":7264,"BSTAR":0.00023014,"MEAN_MOTION_DOT":0.00002661,"MEAN_MOTION_DDOT":0},{"OBJECT_NAME":"LEMUR-2-DELOITTE-1","OBJECT_ID":"2025-052BB","EPOCH":"2026-07-13T17:00:32.955264","CLASSIFICATION_TYPE":"U","MEAN_MOTION":14.97775097,"ECCENTRICITY":0.0002497,"INCLINATION":97.6883,"RA_OF_ASC_NODE":87.0566,"ARG_OF_PERICENTER":66.3822,"MEAN_ANOMALY":293.7662,"EPHEMERIS_TYPE":0,"NORAD_CAT_ID":63259,"ELEMENT_SET_NO":999,"REV_AT_EPOCH":7266,"BSTAR":0.00019939,"MEAN_MOTION_DOT":0.00002283,"MEAN_MOTION_DDOT":0},{"OBJECT_NAME":"LEMUR-2-EMERSONROSE","OBJECT_ID":"2025-052BD","EPOCH":"2026-07-13T15:47:01.062816","CLASSIFICATION_TYPE":"U","MEAN_MOTION":14.99282406,"ECCENTRICITY":0.0002767,"INCLINATION":97.6886,"RA_OF_ASC_NODE":87.616,"ARG_OF_PERICENTER":63.7005,"MEAN_ANOMALY":296.4502,"EPHEMERIS_TYPE":0,"NORAD_CAT_ID":63261,"ELEMENT_SET_NO":999,"REV_AT_EPOCH":7270,"BSTAR":0.00024124,"MEAN_MOTION_DOT":0.00002886,"MEAN_MOTION_DDOT":0},{"OBJECT_NAME":"LEMUR-2-MARACHE-FRAN","OBJECT_ID":"2025-052BE","EPOCH":"2026-07-13T16:21:13.843008","CLASSIFICATION_TYPE":"U","MEAN_MOTION":15.00310104,"ECCENTRICITY":0.0005034,"INCLINATION":97.6842,"RA_OF_ASC_NODE":88.0061,"ARG_OF_PERICENTER":258.6633,"MEAN_ANOMALY":101.4026,"EPHEMERIS_TYPE":0,"NORAD_CAT_ID":63262,"ELEMENT_SET_NO":999,"REV_AT_EPOCH":7273,"BSTAR":0.00015702,"MEAN_MOTION_DOT":0.00001909,"MEAN_MOTION_DDOT":0},{"OBJECT_NAME":"LEMUR-2-THEFALCONER","OBJECT_ID":"2025-052BG","EPOCH":"2026-07-13T16:07:52.743072","CLASSIFICATION_TYPE":"U","MEAN_MOTION":14.97560337,"ECCENTRICITY":0.0000339,"INCLINATION":97.6839,"RA_OF_ASC_NODE":86.6131,"ARG_OF_PERICENTER":334.6761,"MEAN_ANOMALY":25.4445,"EPHEMERIS_TYPE":0,"NORAD_CAT_ID":63264,"ELEMENT_SET_NO":999,"REV_AT_EPOCH":7265,"BSTAR":0.0001068,"MEAN_MOTION_DOT":0.00001189,"MEAN_MOTION_DDOT":0},{"OBJECT_NAME":"LEMUR-2-UNTITLED-SC","OBJECT_ID":"2025-061A","EPOCH":"2026-07-13T20:43:49.444608","CLASSIFICATION_TYPE":"U","MEAN_MOTION":15.13641613,"ECCENTRICITY":0.00191,"INCLINATION":97.565,"RA_OF_ASC_NODE":170.036,"ARG_OF_PERICENTER":167.5563,"MEAN_ANOMALY":192.6144,"EPHEMERIS_TYPE":0,"NORAD_CAT_ID":63351,"ELEMENT_SET_NO":999,"REV_AT_EPOCH":7162,"BSTAR":0.00011181,"MEAN_MOTION_DOT":0.00001951,"MEAN_MOTION_DDOT":0},{"OBJECT_NAME":"LEMUR-2-ESPERANZA","OBJECT_ID":"2025-061B","EPOCH":"2026-07-13T20:08:26.421216","CLASSIFICATION_TYPE":"U","MEAN_MOTION":15.13747436,"ECCENTRICITY":0.0018709,"INCLINATION":97.5656,"RA_OF_ASC_NODE":170.1114,"ARG_OF_PERICENTER":166.7847,"MEAN_ANOMALY":193.3878,"EPHEMERIS_TYPE":0,"NORAD_CAT_ID":63352,"ELEMENT_SET_NO":999,"REV_AT_EPOCH":7162,"BSTAR":0.000094768,"MEAN_MOTION_DOT":0.00001648,"MEAN_MOTION_DDOT":0},{"OBJECT_NAME":"LEMUR-2-KREMPEL-BRO2","OBJECT_ID":"2025-061C","EPOCH":"2026-07-13T20:36:18.535104","CLASSIFICATION_TYPE":"U","MEAN_MOTION":15.14174108,"ECCENTRICITY":0.0019847,"INCLINATION":97.5703,"RA_OF_ASC_NODE":170.6979,"ARG_OF_PERICENTER":159.7337,"MEAN_ANOMALY":200.4687,"EPHEMERIS_TYPE":0,"NORAD_CAT_ID":63353,"ELEMENT_SET_NO":999,"REV_AT_EPOCH":7164,"BSTAR":0.0001061,"MEAN_MOTION_DOT":0.00001876,"MEAN_MOTION_DDOT":0},{"OBJECT_NAME":"LEMUR-2-THERMORAPTOR","OBJECT_ID":"2025-061D","EPOCH":"2026-07-13T20:08:25.038816","CLASSIFICATION_TYPE":"U","MEAN_MOTION":15.14256497,"ECCENTRICITY":0.0019602,"INCLINATION":97.5708,"RA_OF_ASC_NODE":170.7595,"ARG_OF_PERICENTER":158.6334,"MEAN_ANOMALY":201.572,"EPHEMERIS_TYPE":0,"NORAD_CAT_ID":63354,"ELEMENT_SET_NO":999,"REV_AT_EPOCH":7164,"BSTAR":0.00010283,"MEAN_MOTION_DOT":0.00001821,"MEAN_MOTION_DDOT":0},{"OBJECT_NAME":"LEMUR-2-NEUROSPICY","OBJECT_ID":"2025-061E","EPOCH":"2026-07-13T20:59:49.236288","CLASSIFICATION_TYPE":"U","MEAN_MOTION":15.14375512,"ECCENTRICITY":0.0017345,"INCLINATION":97.5636,"RA_OF_ASC_NODE":170.4007,"ARG_OF_PERICENTER":161.331,"MEAN_ANOMALY":198.8561,"EPHEMERIS_TYPE":0,"NORAD_CAT_ID":63355,"ELEMENT_SET_NO":999,"REV_AT_EPOCH":7165,"BSTAR":0.00012908,"MEAN_MOTION_DOT":0.00002309,"MEAN_MOTION_DDOT":0},{"OBJECT_NAME":"LEMUR-2-TILLINFINITY","OBJECT_ID":"2025-061F","EPOCH":"2026-07-13T20:00:40.731264","CLASSIFICATION_TYPE":"U","MEAN_MOTION":15.14958907,"ECCENTRICITY":0.0018934,"INCLINATION":97.5622,"RA_OF_ASC_NODE":170.669,"ARG_OF_PERICENTER":150.285,"MEAN_ANOMALY":209.9462,"EPHEMERIS_TYPE":0,"NORAD_CAT_ID":63356,"ELEMENT_SET_NO":999,"REV_AT_EPOCH":7167,"BSTAR":0.00011113,"MEAN_MOTION_DOT":0.00002013,"MEAN_MOTION_DDOT":0},{"OBJECT_NAME":"LEMUR-2-KREMPEL-BRO1","OBJECT_ID":"2025-061G","EPOCH":"2026-07-13T21:02:30.411168","CLASSIFICATION_TYPE":"U","MEAN_MOTION":15.14766529,"ECCENTRICITY":0.0019554,"INCLINATION":97.5622,"RA_OF_ASC_NODE":170.6202,"ARG_OF_PERICENTER":151.5684,"MEAN_ANOMALY":208.6619,"EPHEMERIS_TYPE":0,"NORAD_CAT_ID":63357,"ELEMENT_SET_NO":999,"REV_AT_EPOCH":7167,"BSTAR":0.00012655,"MEAN_MOTION_DOT":0.0000229,"MEAN_MOTION_DDOT":0},{"OBJECT_NAME":"LEMUR-2-LANGER2SPACE","OBJECT_ID":"2025-061H","EPOCH":"2026-07-13T20:13:14.430432","CLASSIFICATION_TYPE":"U","MEAN_MOTION":15.14459889,"ECCENTRICITY":0.0017299,"INCLINATION":97.5628,"RA_OF_ASC_NODE":170.3895,"ARG_OF_PERICENTER":159.7511,"MEAN_ANOMALY":200.4411,"EPHEMERIS_TYPE":0,"NORAD_CAT_ID":63358,"ELEMENT_SET_NO":999,"REV_AT_EPOCH":7165,"BSTAR":0.00010013,"MEAN_MOTION_DOT":0.0000178,"MEAN_MOTION_DDOT":0},{"OBJECT_NAME":"LEMUR-2-BALTO","OBJECT_ID":"2025-052BH","EPOCH":"2026-07-13T15:58:47.025120","CLASSIFICATION_TYPE":"U","MEAN_MOTION":15.00356095,"ECCENTRICITY":0.0005179,"INCLINATION":97.6932,"RA_OF_ASC_NODE":87.9765,"ARG_OF_PERICENTER":333.9696,"MEAN_ANOMALY":26.1266,"EPHEMERIS_TYPE":0,"NORAD_CAT_ID":63395,"ELEMENT_SET_NO":999,"REV_AT_EPOCH":7273,"BSTAR":0.00022806,"MEAN_MOTION_DOT":0.00002803,"MEAN_MOTION_DDOT":0},{"OBJECT_NAME":"LEMUR-2-KRISH","OBJECT_ID":"2025-135AK","EPOCH":"2026-07-13T19:45:12.256128","CLASSIFICATION_TYPE":"U","MEAN_MOTION":14.96443451,"ECCENTRICITY":0.0001441,"INCLINATION":97.7772,"RA_OF_ASC_NODE":309.5216,"ARG_OF_PERICENTER":95.6216,"MEAN_ANOMALY":264.5169,"EPHEMERIS_TYPE":0,"NORAD_CAT_ID":64561,"ELEMENT_SET_NO":999,"REV_AT_EPOCH":5790,"BSTAR":0.00018963,"MEAN_MOTION_DOT":0.00002093,"MEAN_MOTION_DDOT":0}]}
